CCSDS_OMM_VERS = 2.0
CREATION_DATE  = 
ORIGINATOR     = 

OBJECT_NAME    = SOYUZ-MS 28
OBJECT_ID      = 2025-275A
CENTER_NAME    = EARTH
REF_FRAME      = TEME
TIME_SYSTEM    = UTC
MEAN_ELEMENT_THEORY = SGP/SGP4

EPOCH          = 2026-01-14T04:14:12.571296
MEAN_MOTION    = 15.49283642
ECCENTRICITY   = .00077627
INCLINATION    = 51.6332
RA_OF_ASC_NODE = 341.8911
ARG_OF_PERICENTER = 16.2553
MEAN_ANOMALY   = 343.8684

EPHEMERIS_TYPE = 0
CLASSIFICATION_TYPE = U
NORAD_CAT_ID   = 66664
ELEMENT_SET_NO = 999
REV_AT_EPOCH   = 128
BSTAR          = .14457162E-3
MEAN_MOTION_DOT = .7605E-4
MEAN_MOTION_DDOT = 0

CCSDS_OMM_VERS = 2.0
CREATION_DATE  = 
ORIGINATOR     = 

OBJECT_NAME    = 1998-067XS
OBJECT_ID      = 1998-067XS
CENTER_NAME    = EARTH
REF_FRAME      = TEME
TIME_SYSTEM    = UTC
MEAN_ELEMENT_THEORY = SGP/SGP4

EPOCH          = 2026-01-14T01:31:30.628416
MEAN_MOTION    = 15.52442864
ECCENTRICITY   = .00022229
INCLINATION    = 51.6318
RA_OF_ASC_NODE = 341.8884
ARG_OF_PERICENTER = 10.9274
MEAN_ANOMALY   = 349.1763

EPHEMERIS_TYPE = 0
CLASSIFICATION_TYPE = U
NORAD_CAT_ID   = 66906
ELEMENT_SET_NO = 999
REV_AT_EPOCH   = 663
BSTAR          = .29203087E-3
MEAN_MOTION_DOT = .17757E-3
MEAN_MOTION_DDOT = 0

CCSDS_OMM_VERS = 2.0
CREATION_DATE  = 
ORIGINATOR     = 

OBJECT_NAME    = 1998-067XT
OBJECT_ID      = 1998-067XT
CENTER_NAME    = EARTH
REF_FRAME      = TEME
TIME_SYSTEM    = UTC
MEAN_ELEMENT_THEORY = SGP/SGP4

EPOCH          = 2026-01-14T01:53:14.268768
MEAN_MOTION    = 15.56274551
ECCENTRICITY   = .00036597
INCLINATION    = 51.6313
RA_OF_ASC_NODE = 341.2390
ARG_OF_PERICENTER = 56.5308
MEAN_ANOMALY   = 303.6033

EPHEMERIS_TYPE = 0
CLASSIFICATION_TYPE = U
NORAD_CAT_ID   = 66907
ELEMENT_SET_NO = 999
REV_AT_EPOCH   = 664
BSTAR          = .67927138E-3
MEAN_MOTION_DOT = .48473E-3
MEAN_MOTION_DDOT = 0

CCSDS_OMM_VERS = 2.0
CREATION_DATE  = 
ORIGINATOR     = 

OBJECT_NAME    = 1998-067XU
OBJECT_ID      = 1998-067XU
CENTER_NAME    = EARTH
REF_FRAME      = TEME
TIME_SYSTEM    = UTC
MEAN_ELEMENT_THEORY = SGP/SGP4

EPOCH          = 2026-01-14T01:51:53.542656
MEAN_MOTION    = 15.56245733
ECCENTRICITY   = .00036078
INCLINATION    = 51.6303
RA_OF_ASC_NODE = 341.2315
ARG_OF_PERICENTER = 52.4205
MEAN_ANOMALY   = 307.7113

EPHEMERIS_TYPE = 0
CLASSIFICATION_TYPE = U
NORAD_CAT_ID   = 66908
ELEMENT_SET_NO = 999
REV_AT_EPOCH   = 664
BSTAR          = .68878798E-3
MEAN_MOTION_DOT = .4911E-3
MEAN_MOTION_DDOT = 0

CCSDS_OMM_VERS = 2.0
CREATION_DATE  = 
ORIGINATOR     = 

OBJECT_NAME    = SILVERSAT
OBJECT_ID      = 1998-067XV
CENTER_NAME    = EARTH
REF_FRAME      = TEME
TIME_SYSTEM    = UTC
MEAN_ELEMENT_THEORY = SGP/SGP4

EPOCH          = 2026-01-13T07:10:58.693152
MEAN_MOTION    = 15.56861412
ECCENTRICITY   = .0003866
INCLINATION    = 51.6313
RA_OF_ASC_NODE = 345.0339
ARG_OF_PERICENTER = 59.9935
MEAN_ANOMALY   = 300.1440

EPHEMERIS_TYPE = 0
CLASSIFICATION_TYPE = U
NORAD_CAT_ID   = 66909
ELEMENT_SET_NO = 999
REV_AT_EPOCH   = 652
BSTAR          = .10009E-2
MEAN_MOTION_DOT = .73481E-3
MEAN_MOTION_DDOT = 0

CCSDS_OMM_VERS = 2.0
CREATION_DATE  = 
ORIGINATOR     = 

OBJECT_NAME    = 1998-067XW
OBJECT_ID      = 1998-067XW
CENTER_NAME    = EARTH
REF_FRAME      = TEME
TIME_SYSTEM    = UTC
MEAN_ELEMENT_THEORY = SGP/SGP4

EPOCH          = 2026-01-14T01:42:02.451744
MEAN_MOTION    = 15.56576236
ECCENTRICITY   = .00026244
INCLINATION    = 51.6290
RA_OF_ASC_NODE = 341.1847
ARG_OF_PERICENTER = 37.8858
MEAN_ANOMALY   = 322.2318

EPHEMERIS_TYPE = 0
CLASSIFICATION_TYPE = U
NORAD_CAT_ID   = 66910
ELEMENT_SET_NO = 999
REV_AT_EPOCH   = 664
BSTAR          = .69154533E-3
MEAN_MOTION_DOT = .49922E-3
MEAN_MOTION_DDOT = 0

CCSDS_OMM_VERS = 2.0
CREATION_DATE  = 
ORIGINATOR     = 

OBJECT_NAME    = 1998-067XX
OBJECT_ID      = 1998-067XX
CENTER_NAME    = EARTH
REF_FRAME      = TEME
TIME_SYSTEM    = UTC
MEAN_ELEMENT_THEORY = SGP/SGP4

EPOCH          = 2026-01-13T22:16:11.725536
MEAN_MOTION    = 15.57692330
ECCENTRICITY   = .00027067
INCLINATION    = 51.6291
RA_OF_ASC_NODE = 341.7313
ARG_OF_PERICENTER = 54.6525
MEAN_ANOMALY   = 305.4720

EPHEMERIS_TYPE = 0
CLASSIFICATION_TYPE = U
NORAD_CAT_ID   = 66911
ELEMENT_SET_NO = 999
REV_AT_EPOCH   = 661
BSTAR          = .79797675E-3
MEAN_MOTION_DOT = .60229E-3
MEAN_MOTION_DDOT = 0

CCSDS_OMM_VERS = 2.0
CREATION_DATE  = 
ORIGINATOR     = 

OBJECT_NAME    = 1998-067XY
OBJECT_ID      = 1998-067XY
CENTER_NAME    = EARTH
REF_FRAME      = TEME
TIME_SYSTEM    = UTC
MEAN_ELEMENT_THEORY = SGP/SGP4

EPOCH          = 2026-01-13T09:21:06.020928
MEAN_MOTION    = 15.54808209
ECCENTRICITY   = .0003422
INCLINATION    = 51.6311
RA_OF_ASC_NODE = 344.8874
ARG_OF_PERICENTER = 37.4074
MEAN_ANOMALY   = 322.7154

EPHEMERIS_TYPE = 0
CLASSIFICATION_TYPE = U
NORAD_CAT_ID   = 66912
ELEMENT_SET_NO = 999
REV_AT_EPOCH   = 652
BSTAR          = .73718E-3
MEAN_MOTION_DOT = .49866E-3
MEAN_MOTION_DDOT = 0

