SOYUZ-MS 28             
1 66664U 25275A   26014.17653439  .00007605  00000+0  14457-3 0  9991
2 66664  51.6332 341.8911 0007762  16.2553 343.8684 15.49283642  1282
1998-067XS              
1 66906U 98067XS  26014.06354894  .00017757  00000+0  29203-3 0  9994
2 66906  51.6318 341.8884 0002222  10.9274 349.1763 15.52442864  6639
1998-067XT              
1 66907U 98067XT  26014.07863737  .00048473  00000+0  67927-3 0  9991
2 66907  51.6313 341.2390 0003659  56.5308 303.6033 15.56274551  6646
1998-067XU              
1 66908U 98067XU  26014.07770304  .00049110  00000+0  68879-3 0  9995
2 66908  51.6303 341.2315 0003607  52.4205 307.7113 15.56245733  6641
SILVERSAT               
1 66909U 98067XV  26013.29929043  .00073481  00000+0  10009-2 0  9994
2 66909  51.6313 345.0339 0003866  59.9935 300.1440 15.56861412  6525
1998-067XW              
1 66910U 98067XW  26014.07086171  .00049922  00000+0  69155-3 0  9999
2 66910  51.6290 341.1847 0002624  37.8858 322.2318 15.56576236  6641
1998-067XX              
1 66911U 98067XX  26013.92791349  .00060229  00000+0  79798-3 0  9990
2 66911  51.6291 341.7313 0002706  54.6525 305.4720 15.57692330  6618
1998-067XY              
1 66912U 98067XY  26013.38965302  .00049866  00000+0  73718-3 0  9993
2 66912  51.6311 344.8874 0003422  37.4074 322.7154 15.54808209  6526
